{
    "links": {
        "self": "http://www.neowsapp.com/rest/v1/neo/3802433?api_key=iIulBulltgU6a56xZRHN4H3l9WmuAYTsLGpBGhQ2"
    },
    "id": "3802433",
    "neo_reference_id": "3802433",
    "name": "(2018 GR1)",
    "designation": "2018 GR1",
    "nasa_jpl_url": "http://ssd.jpl.nasa.gov/sbdb.cgi?sstr=3802433",
    "absolute_magnitude_h": 24.2,
    "estimated_diameter": {
        "kilometers": {
            "estimated_diameter_min": 0.0384197891,
            "estimated_diameter_max": 0.0859092601
        },
        "meters": {
            "estimated_diameter_min": 38.4197891064,
            "estimated_diameter_max": 85.9092601232
        },
        "miles": {
            "estimated_diameter_min": 0.0238729428,
            "estimated_diameter_max": 0.0533815229
        },
        "feet": {
            "estimated_diameter_min": 126.0491808919,
            "estimated_diameter_max": 281.8545369825
        }
    },
    "is_potentially_hazardous_asteroid": false,
    "close_approach_data": [
        {
            "close_approach_date": "1909-10-22",
            "close_approach_date_full": "1909-Oct-22 23:21",
            "epoch_date_close_approach": -1899506340000,
            "relative_velocity": {
                "kilometers_per_second": "23.2598149276",
                "kilometers_per_hour": "83735.3337392102",
                "miles_per_hour": "52029.8800114554"
            },
            "miss_distance": {
                "astronomical": "0.203515978",
                "lunar": "79.167715442",
                "kilometers": "30445556.81976686",
                "miles": "18917991.768868268"
            },
            "orbiting_body": "Earth"
        },
        {
            "close_approach_date": "2018-04-21",
            "close_approach_date_full": "2018-Apr-21 19:53",
            "epoch_date_close_approach": 1524340380000,
            "relative_velocity": {
                "kilometers_per_second": "16.3672976995",
                "kilometers_per_hour": "58922.2717180801",
                "miles_per_hour": "36612.0082239371"
            },
            "miss_distance": {
                "astronomical": "0.0467645811",
                "lunar": "18.1914220479",
                "kilometers": "6995881.724002257",
                "miles": "4347039.3284028666"
            },
            "orbiting_body": "Earth"
        }
    ],
    "orbital_data": {
        "orbit_id": "7",
        "orbit_determination_date": "2018-05-19 06:31:49",
        "first_observation_date": "2018-04-10",
        "last_observation_date": "2018-04-21",
        "data_arc_in_days": 11,
        "observations_used": 48,
        "orbit_uncertainty": "8",
        "minimum_orbit_intersection": ".015133",
        "jupiter_tisserand_invariant": "4.341",
        "epoch_osculation": "2458220.5",
        "eccentricity": ".5524329459283648",
        "semi_major_axis": "1.502588886269646",
        "inclination": "11.46024077425063",
        "ascending_node_longitude": "32.75164281512018",
        "orbital_period": "672.7577126668891",
        "perihelion_distance": ".6725092813084849",
        "perihelion_argument": "261.2317532858422",
        "aphelion_distance": "2.332668491230808",
        "perihelion_time": "2458281.558794719666",
        "mean_anomaly": "327.3267720529819",
        "mean_motion": ".5351109221370626",
        "equinox": "J2000",
        "orbit_class": {
            "orbit_class_type": "APO",
            "orbit_class_description": "Near-Earth asteroid orbits which cross the Earth’s orbit similar to that of 1862 Apollo",
            "orbit_class_range": "a (semi-major axis) > 1.0 AU; q (perihelion) < 1.017 AU"
        }
    },
    "is_sentry_object": false
}